0 TITAN 3C TRANSTAGE R/B
1 03432U 68081E   13279.85130486  .00000065  00000-0  10000-3 0  9694
2 03432 007.7849 321.3268 0095546 282.9340 075.9086 01.01515274 74924
0 TITAN 3C TRANSTAGE R/B
1 03432U 68081E   13282.80642984  .00000064  00000-0  10000-3 0  9705
2 03432 007.7816 321.3092 0095498 282.9336 075.9152 01.01516017 74957
0 TITAN 3C TRANSTAGE R/B
1 03432U 68081E   13285.76151497  .00000015  00000-0  10000-3 0  9714
2 03432 007.7782 321.2915 0095520 282.9927 075.8564 01.01517253 74986
0 TITAN 3C TRANSTAGE R/B
1 03432U 68081E   13288.71649737 -.00000064  00000-0  10000-3 0  9727
2 03432 007.7749 321.2741 0095744 283.0390 075.7823 01.01518726 75018
0 TITAN 3C TRANSTAGE R/B
1 03432U 68081E   13290.68646884 -.00000124  00000-0  10000-3 0  9734
2 03432 007.7726 321.2628 0095995 283.1580 075.6453 01.01519678 75034
0 TITAN 3C TRANSTAGE R/B
1 03432U 68081E   13293.64144960 -.00000211  00000-0  10000-3 0  9749
2 03432 007.7693 321.2452 0096053 283.2273 075.5767 01.01520811 75069
